     2.100          NAVIGATION                              RINEX VERSION / TYPE
fic2rin                                 02/06/2009 03:25:14 PGM / RUN BY / DATE
                                                            END OF HEADER
24 09  2  5 10  0  0.0  .163109507412D-03  .295585778076D-11  .000000000000D+00
     .330000000000D+02  .205312500000D+02  .474876923387D-08 -.254061659076D+01
     .959262251854D-06  .695390603505D-02  .891461968422D-05  .515366500854D+04
     .381600000000D+06 -.670552253723D-07  .165888090504D+01  .782310962677D-07
     .950866536414D+00  .202843750000D+03 -.639114675086D+00 -.790390065776D-08
    -.623954561641D-09  .100000000000D+01  .151700000000D+04  .000000000000D+00
     .240000000000D+01  .000000000000D+00 -.139698386192D-08  .330000000000D+02
     .374406000000D+06  .400000000000D+01
25 09  2  5 10  0  0.0  .222095753998D-03  .252384779742D-10  .000000000000D+00
     .460000000000D+02 -.935000000000D+02  .438553981819D-08 -.201855503534D+01
    -.462867319584D-05  .117979432689D-01  .435113906860D-05  .515367398453D+04
     .381600000000D+06 -.130385160446D-07 -.162817855114D+01  .290572643280D-06
     .967992369773D+00  .297156250000D+03 -.122967359963D+01 -.803854912355D-08
    -.617882880159D-10  .100000000000D+01  .151700000000D+04  .000000000000D+00
     .240000000000D+01  .000000000000D+00 -.745058059692D-08  .460000000000D+02
     .374406000000D+06  .400000000000D+01
26 09  2  5 10  0  0.0  .421982258558D-04  .306954461848D-11  .000000000000D+00
     .660000000000D+02  .476875000000D+02  .403159650361D-08  .910688524187D+00
     .247918069363D-05  .195454207715D-01  .214204192162D-05  .515364419746D+04
     .381600000000D+06 -.240281224251D-06 -.252874026631D+01  .113621354103D-06
     .993265742511D+00  .357718750000D+03  .967760532368D+00 -.841213611352D-08
    -.278583032673D-10  .100000000000D+01  .151700000000D+04  .000000000000D+00
     .240000000000D+01  .000000000000D+00 -.651925802231D-08  .660000000000D+02
     .374406000000D+06  .400000000000D+01
27 09  2  5 10  0  0.0  .221603550017D-04  .306954461848D-11  .000000000000D+00
     .490000000000D+02 -.128906250000D+03  .415838749925D-08 -.294351396844D+01
    -.674277544022D-05  .210713526467D-01  .417791306973D-05  .515519013214D+04
     .381600000000D+06  .404193997383D-06 -.159230093290D+01  .745058059692D-07
     .972648903851D+00  .298281250000D+03 -.165161040699D+01 -.781889711702D-08
    -.282154610015D-10  .100000000000D+01  .151700000000D+04  .000000000000D+00
     .240000000000D+01  .000000000000D+00 -.419095158577D-08  .490000000000D+02
     .374406000000D+06  .400000000000D+01
28 09  2  5 10  0  0.0 -.237156637013D-04  .000000000000D+00  .000000000000D+00
     .960000000000D+02 -.742500000000D+02  .419624621907D-08  .305539118300D+01
    -.386498868465D-05  .146291272249D-01  .104717910290D-04  .515364395714D+04
     .381600000000D+06  .558793544769D-07 -.456729328061D+00 -.178813934326D-06
     .965980888136D+00  .177343750000D+03 -.205750829255D+01 -.749495505210D-08
     .391087718945D-09  .100000000000D+01  .151700000000D+04  .000000000000D+00
     .340000000000D+01  .000000000000D+00 -.107102096081D-07  .960000000000D+02
     .374406000000D+06  .400000000000D+01
29 09  2  5 10  0  0.0 -.126431696117D-04  .318323145621D-11  .000000000000D+00
     .380000000000D+02  .528125000000D+01  .481020036415D-08 -.110874241873D+01
     .253319740295D-06  .326606328599D-02  .705197453499D-05  .515373522568D+04
     .381600000000D+06 -.819563865662D-07  .584620432428D+00 -.130385160446D-07
     .960013762324D+00  .240281250000D+03 -.134406736976D+01 -.803283459980D-08
     .193222334200D-09  .100000000000D+01  .151700000000D+04  .000000000000D+00
     .240000000000D+01  .000000000000D+00  .000000000000D+00  .380000000000D+02
     .374406000000D+06  .400000000000D+01
30 09  2  5 10  0  0.0  .124358572066D-03  .250111042988D-11  .000000000000D+00
     .930000000000D+02 -.855625000000D+02  .456161858115D-08 -.279625487030D+01
    -.431947410107D-05  .111756433034D-01  .992417335510D-05  .515364732361D+04
     .381600000000D+06  .230967998505D-06 -.527781923527D+00  .484287738800D-07
     .951208878262D+00  .181375000000D+03  .141329493396D+01 -.772103589785D-08
     .387516141603D-09  .100000000000D+01  .151700000000D+04  .000000000000D+00
     .240000000000D+01  .000000000000D+00 -.745058059692D-08  .930000000000D+02
     .374406000000D+06  .400000000000D+01
31 09  2  5 10  0  0.0 -.504227355123D-04 -.136424205266D-11  .000000000000D+00
     .600000000000D+01 -.104125000000D+03  .440411202037D-08 -.311060594499D+00
    -.563636422157D-05  .718598125968D-02  .412762165070D-05  .515363763809D+04
     .381600000000D+06 -.106170773506D-06 -.153607353462D+01 -.633299350739D-07
     .971063043599D+00  .305656250000D+03 -.119430449025D+01 -.822569977627D-08
    -.235724104569D-10  .100000000000D+01  .151700000000D+04  .000000000000D+00
     .240000000000D+01  .000000000000D+00 -.130385160446D-07  .600000000000D+01
     .374406000000D+06  .400000000000D+01
32 09  2  5 10  0  0.0  .298040453345D-03 -.318323145621D-11  .000000000000D+00
     .540000000000D+02  .903750000000D+02  .424196240905D-08  .543835411602D+00
     .468641519547D-05  .135596388718D-01  .824779272079D-05  .515364822769D+04
     .381600000000D+06 -.968575477600D-07  .274063672620D+01 -.173225998878D-06
     .965738460666D+00  .226968750000D+03 -.120220799880D+01 -.813998192006D-08
    -.125362364703D-09  .100000000000D+01  .151700000000D+04  .000000000000D+00
     .240000000000D+01  .000000000000D+00 -.325962901115D-08  .540000000000D+02
     .374406000000D+06  .400000000000D+01
 2 09  2  5  9 59 44.0  .158533453941D-03 -.147792889038D-11  .000000000000D+00
     .110000000000D+02  .245000000000D+02  .503770984084D-08  .157898913032D+01
     .130571424961D-05  .895905937068D-02  .794604420662D-05  .515360745430D+04
     .381584000000D+06  .111758708954D-06  .159620117929D+01  .104308128357D-06
     .941458796978D+00  .215718750000D+03  .271357635807D+01 -.807497921244D-08
    -.626097508046D-09  .100000000000D+01  .151700000000D+04  .000000000000D+00
     .240000000000D+01  .000000000000D+00 -.172294676304D-07  .110000000000D+02
     .379206000000D+06  .400000000000D+01
11 09  2  5  9 59 44.0  .845408067107D-05 -.113686837722D-11  .000000000000D+00
     .100000000000D+01  .553125000000D+01  .643669668568D-08 -.379009141126D+00
     .316649675369D-06  .918472977355D-02  .674836337566D-05  .515366382217D+04
     .381584000000D+06  .223517417908D-07  .140159702845D+01  .167638063431D-06
     .889530344395D+00  .209031250000D+03  .684321427249D+00 -.901644699978D-08
    -.427517807833D-09  .100000000000D+01  .151700000000D+04  .000000000000D+00
     .240000000000D+01  .000000000000D+00 -.116415321827D-07  .100000000000D+01
     .379296000000D+06  .400000000000D+01
 2 09  2  5 11 59 44.0  .158522278070D-03 -.147792889038D-11  .000000000000D+00
     .120000000000D+02  .224687500000D+02  .500842290663D-08  .262917690411D+01
     .119954347610D-05  .895875343122D-02  .811927020550D-05  .515360829163D+04
     .388784000000D+06 -.223517417908D-07  .159614262746D+01  .186264514923D-06
     .941454573533D+00  .213062500000D+03  .271361380877D+01 -.803390607301D-08
    -.532165023952D-09  .100000000000D+01  .151700000000D+04  .000000000000D+00
     .240000000000D+01  .000000000000D+00 -.172294676304D-07  .120000000000D+02
     .381606000000D+06  .400000000000D+01
11 09  2  5 11 59 44.0  .844616442919D-05 -.113686837722D-11  .000000000000D+00
     .200000000000D+01 -.356250000000D+01  .650169939331D-08  .671209791359D+00
     .502914190292D-07  .918344617821D-02  .675953924656D-05  .515366134453D+04
     .388784000000D+06 -.111758708954D-06  .140153250937D+01  .137835741043D-06
     .889527218139D+00  .209406250000D+03  .684304104836D+00 -.897858827996D-08
    -.496449250533D-09  .100000000000D+01  .151700000000D+04  .000000000000D+00
     .240000000000D+01  .000000000000D+00 -.116415321827D-07  .200000000000D+01
     .381606000000D+06  .400000000000D+01
 3 09  2  5 12  0  0.0  .348795205355D-03  .522959453519D-11  .000000000000D+00
     .300000000000D+02  .434375000000D+01  .555808865956D-08  .227294427542D+01
     .465661287308D-07  .116241022479D-01  .748038291931D-05  .515372591019D+04
     .388800000000D+06 -.104308128357D-06  .449522569356D+00 -.270083546638D-06
     .926405498679D+00  .216281250000D+03  .889756880185D+00 -.822391398760D-08
     .356086260993D-09  .100000000000D+01  .151700000000D+04  .000000000000D+00
     .240000000000D+01  .000000000000D+00 -.419095158577D-08  .300000000000D+02
     .381606000000D+06  .400000000000D+01
 4 09  2  5 12  0  0.0 -.325448811054D-03 -.139834810398D-10  .000000000000D+00
     .750000000000D+02  .158125000000D+02  .503520973670D-08 -.816365372757D+00
     .840052962303D-06  .863585947081D-02  .776909291744D-05  .515367131042D+04
     .388800000000D+06  .223517417908D-06  .161466563390D+01  .838190317154D-07
     .940693646935D+00  .218468750000D+03  .473592450592D+00 -.820819904729D-08
    -.499306512406D-09  .100000000000D+01  .151700000000D+04  .000000000000D+00
     .240000000000D+01  .000000000000D+00 -.605359673500D-08  .750000000000D+02
     .381606000000D+06  .400000000000D+01
 5 09  2  5 12  0  0.0 -.638723839074D-03 -.449063009000D-10  .000000000000D+00
     .460000000000D+02 -.889062500000D+02  .483020119727D-08 -.120891111285D+01
    -.447034835815D-05  .939871941227D-02  .103749334812D-04  .515362805176D+04
     .388800000000D+06 -.372529029846D-08 -.581076639192D+00  .290572643280D-06
     .945256181211D+00  .173093750000D+03  .129515151022D+01 -.805962142987D-08
     .333942481473D-09  .100000000000D+01  .151700000000D+04  .000000000000D+00
     .240000000000D+01  .000000000000D+00 -.419095158577D-08  .460000000000D+02
     .381606000000D+06  .400000000000D+01
